{
  "norad_id": 52604,
  "name": "STARLINK-4013",
  "history": [
    {
      "epoch": "2026-03-28T17:35:25.920096Z",
      "apogee_km": 540.59722886293,
      "perigee_km": 538.8150541128198,
      "latitude_deg": 3.91889594211327e-05,
      "longitude_deg": 103.62687534246803,
      "height_km": 540.5548044385481,
      "semi_major_axis_km": 6917.843141487874,
      "eccentricity": 0.00012881,
      "inclination_deg": 53.2166,
      "raan_deg": 193.634,
      "arg_perigee_deg": 86.9727,
      "mean_anomaly_deg": 273.1413,
      "mean_motion_rev_day": 15.08852186
    },
    {
      "epoch": "2026-03-28T23:56:59.347104Z",
      "apogee_km": 540.7277393642453,
      "perigee_km": 538.7962619632599,
      "latitude_deg": -1.749076539897662e-05,
      "longitude_deg": 6.785187329134141,
      "height_km": 540.5583627224922,
      "semi_major_axis_km": 6917.899000663752,
      "eccentricity": 0.0001396,
      "inclination_deg": 53.2167,
      "raan_deg": 192.4428,
      "arg_perigee_deg": 84.1023,
      "mean_anomaly_deg": 276.0128,
      "mean_motion_rev_day": 15.08833911
    },
    {
      "epoch": "2026-03-29T23:47:46.157280Z",
      "apogee_km": 540.6537395644791,
      "perigee_km": 538.829633312439,
      "latitude_deg": 3.0924281918218185e-05,
      "longitude_deg": 3.6524472036848423,
      "height_km": 540.5070710098241,
      "semi_major_axis_km": 6917.878686438458,
      "eccentricity": 0.00013184,
      "inclination_deg": 53.2167,
      "raan_deg": 187.9844,
      "arg_perigee_deg": 81.785,
      "mean_anomaly_deg": 278.3292,
      "mean_motion_rev_day": 15.08840557
    },
    {
      "epoch": "2026-03-30T12:30:51.635808Z",
      "apogee_km": 540.6069205196964,
      "perigee_km": 538.8973717539029,
      "latitude_deg": 3.864960849642066e-05,
      "longitude_deg": 169.97770891358783,
      "height_km": 540.6049755353341,
      "semi_major_axis_km": 6917.889146136799,
      "eccentricity": 0.00012356,
      "inclination_deg": 53.2167,
      "raan_deg": 185.6048,
      "arg_perigee_deg": 87.1185,
      "mean_anomaly_deg": 272.9949,
      "mean_motion_rev_day": 15.08837135
    }
  ]
}